{
  "norad_id": 65703,
  "name": "STARLINK-34839",
  "history": [
    {
      "epoch": "2026-03-28T17:54:15.539616",
      "apogee_km": 475.8950573024267,
      "perigee_km": 474.4750489730168,
      "latitude_deg": 3.14318671271499,
      "longitude_deg": 101.91726624011062,
      "semi_major_axis_km": 6853.322053137721,
      "eccentricity": 0.0001036,
      "inclination_deg": 53.1585,
      "raan_deg": 256.9771,
      "arg_perigee_deg": 88.8727,
      "mean_anomaly_deg": 271.2393,
      "mean_motion_rev_day": 15.30210053
    }
  ]
}